[{"OBJECT_NAME":"ISS (ZARYA)","OBJECT_ID":"1998-067A","EPOCH":"2026-03-15T20:06:35.309952","MEAN_MOTION":15.4829942,"ECCENTRICITY":0.00063362,"INCLINATION":51.6331,"RA_OF_ASC_NODE":41.9615,"ARG_OF_PERICENTER":194.9995,"MEAN_ANOMALY":165.0806,"EPHEMERIS_TYPE":0,"CLASSIFICATION_TYPE":"U","NORAD_CAT_ID":25544,"ELEMENT_SET_NO":999,"REV_AT_EPOCH":55728,"BSTAR":0.00015761534,"MEAN_MOTION_DOT":8.038e-5,"MEAN_MOTION_DDOT":0},{"OBJECT_NAME":"POISK","OBJECT_ID":"2009-060A","EPOCH":"2026-03-15T20:06:35.309952","MEAN_MOTION":15.4829942,"ECCENTRICITY":0.00063362,"INCLINATION":51.6331,"RA_OF_ASC_NODE":41.9615,"ARG_OF_PERICENTER":194.9995,"MEAN_ANOMALY":165.0806,"EPHEMERIS_TYPE":0,"CLASSIFICATION_TYPE":"U","NORAD_CAT_ID":36086,"ELEMENT_SET_NO":999,"REV_AT_EPOCH":55444,"BSTAR":0.00015761534,"MEAN_MOTION_DOT":8.038e-5,"MEAN_MOTION_DDOT":0},{"OBJECT_NAME":"CSS (TIANHE)","OBJECT_ID":"2021-035A","EPOCH":"2026-03-15T15:59:17.332512","MEAN_MOTION":15.61005371,"ECCENTRICITY":0.00063677,"INCLINATION":41.4669,"RA_OF_ASC_NODE":171.789,"ARG_OF_PERICENTER":308.3503,"MEAN_ANOMALY":51.6764,"EPHEMERIS_TYPE":0,"CLASSIFICATION_TYPE":"U","NORAD_CAT_ID":48274,"ELEMENT_SET_NO":999,"REV_AT_EPOCH":27854,"BSTAR":0.00026859999,"MEAN_MOTION_DOT":0.00022966,"MEAN_MOTION_DDOT":0},{"OBJECT_NAME":"ISS (NAUKA)","OBJECT_ID":"2021-066A","EPOCH":"2026-03-15T20:06:35.309952","MEAN_MOTION":15.4829942,"ECCENTRICITY":0.00063362,"INCLINATION":51.6331,"RA_OF_ASC_NODE":41.9615,"ARG_OF_PERICENTER":194.9995,"MEAN_ANOMALY":165.0806,"EPHEMERIS_TYPE":0,"CLASSIFICATION_TYPE":"U","NORAD_CAT_ID":49044,"ELEMENT_SET_NO":999,"REV_AT_EPOCH":55445,"BSTAR":0.00015761534,"MEAN_MOTION_DOT":8.038e-5,"MEAN_MOTION_DDOT":0},{"OBJECT_NAME":"FREGAT DEB","OBJECT_ID":"2011-037PF","EPOCH":"2026-03-15T13:35:53.056320","MEAN_MOTION":12.40410649,"ECCENTRICITY":0.09623821,"INCLINATION":51.6526,"RA_OF_ASC_NODE":283.1074,"ARG_OF_PERICENTER":72.9535,"MEAN_ANOMALY":297.4383,"EPHEMERIS_TYPE":0,"CLASSIFICATION_TYPE":"U","NORAD_CAT_ID":49271,"ELEMENT_SET_NO":999,"REV_AT_EPOCH":21342,"BSTAR":0.0217638,"MEAN_MOTION_DOT":0.00015293,"MEAN_MOTION_DDOT":0},{"OBJECT_NAME":"CSS (WENTIAN)","OBJECT_ID":"2022-085A","EPOCH":"2026-03-15T15:59:17.332512","MEAN_MOTION":15.61005371,"ECCENTRICITY":0.00063677,"INCLINATION":41.4669,"RA_OF_ASC_NODE":171.789,"ARG_OF_PERICENTER":308.3503,"MEAN_ANOMALY":51.6764,"EPHEMERIS_TYPE":0,"CLASSIFICATION_TYPE":"U","NORAD_CAT_ID":53239,"ELEMENT_SET_NO":999,"REV_AT_EPOCH":27561,"BSTAR":0.00026859999,"MEAN_MOTION_DOT":0.00022966,"MEAN_MOTION_DDOT":0},{"OBJECT_NAME":"CSS (MENGTIAN)","OBJECT_ID":"2022-143A","EPOCH":"2026-03-15T15:59:17.332512","MEAN_MOTION":15.61005371,"ECCENTRICITY":0.00063677,"INCLINATION":41.4669,"RA_OF_ASC_NODE":171.789,"ARG_OF_PERICENTER":308.3503,"MEAN_ANOMALY":51.6764,"EPHEMERIS_TYPE":0,"CLASSIFICATION_TYPE":"U","NORAD_CAT_ID":54216,"ELEMENT_SET_NO":999,"REV_AT_EPOCH":27558,"BSTAR":0.00026859999,"MEAN_MOTION_DOT":0.00022966,"MEAN_MOTION_DDOT":0},{"OBJECT_NAME":"PROGRESS-MS 31","OBJECT_ID":"2025-146A","EPOCH":"2026-03-15T20:06:35.309952","MEAN_MOTION":15.4829942,"ECCENTRICITY":0.00063362,"INCLINATION":51.6331,"RA_OF_ASC_NODE":41.9615,"ARG_OF_PERICENTER":194.9995,"MEAN_ANOMALY":165.0806,"EPHEMERIS_TYPE":0,"CLASSIFICATION_TYPE":"U","NORAD_CAT_ID":64751,"ELEMENT_SET_NO":999,"REV_AT_EPOCH":55446,"BSTAR":0.00015761534,"MEAN_MOTION_DOT":8.038e-5,"MEAN_MOTION_DDOT":0},{"OBJECT_NAME":"TIANZHOU-9","OBJECT_ID":"2025-149A","EPOCH":"2026-03-15T15:59:17.332512","MEAN_MOTION":15.61005371,"ECCENTRICITY":0.00063677,"INCLINATION":41.4669,"RA_OF_ASC_NODE":171.789,"ARG_OF_PERICENTER":308.3503,"MEAN_ANOMALY":51.6764,"EPHEMERIS_TYPE":0,"CLASSIFICATION_TYPE":"U","NORAD_CAT_ID":64786,"ELEMENT_SET_NO":999,"REV_AT_EPOCH":27559,"BSTAR":0.00026859999,"MEAN_MOTION_DOT":0.00022966,"MEAN_MOTION_DDOT":0},{"OBJECT_NAME":"PROGRESS-MS 32","OBJECT_ID":"2025-204A","EPOCH":"2026-03-15T20:06:35.309952","MEAN_MOTION":15.4829942,"ECCENTRICITY":0.00063362,"INCLINATION":51.6331,"RA_OF_ASC_NODE":41.9615,"ARG_OF_PERICENTER":194.9995,"MEAN_ANOMALY":165.0806,"EPHEMERIS_TYPE":0,"CLASSIFICATION_TYPE":"U","NORAD_CAT_ID":65586,"ELEMENT_SET_NO":999,"REV_AT_EPOCH":55450,"BSTAR":0.00015761534,"MEAN_MOTION_DOT":8.038e-5,"MEAN_MOTION_DDOT":0},{"OBJECT_NAME":"YOTSUBA-KULOVER","OBJECT_ID":"1998-067XN","EPOCH":"2026-03-15T19:59:21.924960","MEAN_MOTION":15.8358571,"ECCENTRICITY":0.00050206,"INCLINATION":51.621,"RA_OF_ASC_NODE":25.3588,"ARG_OF_PERICENTER":112.2581,"MEAN_ANOMALY":247.8955,"EPHEMERIS_TYPE":0,"CLASSIFICATION_TYPE":"U","NORAD_CAT_ID":65941,"ELEMENT_SET_NO":999,"REV_AT_EPOCH":2447,"BSTAR":0.0011436942,"MEAN_MOTION_DOT":0.00264066,"MEAN_MOTION_DDOT":0},{"OBJECT_NAME":"E-KAGAKU-1","OBJECT_ID":"1998-067XQ","EPOCH":"2026-03-15T21:38:56.084928","MEAN_MOTION":15.83160809,"ECCENTRICITY":0.000557,"INCLINATION":51.6233,"RA_OF_ASC_NODE":25.0899,"ARG_OF_PERICENTER":117.427,"MEAN_ANOMALY":242.73,"EPHEMERIS_TYPE":0,"CLASSIFICATION_TYPE":"U","NORAD_CAT_ID":65943,"ELEMENT_SET_NO":999,"REV_AT_EPOCH":2448,"BSTAR":0.0011219432,"MEAN_MOTION_DOT":0.00253612,"MEAN_MOTION_DDOT":0},{"OBJECT_NAME":"HRC MONOBLOCK CAMERA","OBJECT_ID":"1998-067XR","EPOCH":"2026-03-15T21:41:39.496704","MEAN_MOTION":15.62929545,"ECCENTRICITY":0.00037889,"INCLINATION":51.628,"RA_OF_ASC_NODE":34.1527,"ARG_OF_PERICENTER":120.0047,"MEAN_ANOMALY":240.1323,"EPHEMERIS_TYPE":0,"CLASSIFICATION_TYPE":"U","NORAD_CAT_ID":66052,"ELEMENT_SET_NO":999,"REV_AT_EPOCH":2336,"BSTAR":0.00053288764,"MEAN_MOTION_DOT":0.00048968,"MEAN_MOTION_DDOT":0},{"OBJECT_NAME":"HTV-X1","OBJECT_ID":"2025-241A","EPOCH":"2026-03-14T08:15:41.723424","MEAN_MOTION":15.22910308,"ECCENTRICITY":0.00057421,"INCLINATION":51.6357,"RA_OF_ASC_NODE":50.71,"ARG_OF_PERICENTER":187.4106,"MEAN_ANOMALY":172.6788,"EPHEMERIS_TYPE":0,"CLASSIFICATION_TYPE":"U","NORAD_CAT_ID":66174,"ELEMENT_SET_NO":999,"REV_AT_EPOCH":2166,"BSTAR":0.00058534113,"MEAN_MOTION_DOT":0.00013614,"MEAN_MOTION_DDOT":0},{"OBJECT_NAME":"SZ-21 MODULE","OBJECT_ID":"2025-246C","EPOCH":"2026-03-15T14:40:57.612288","MEAN_MOTION":15.69044572,"ECCENTRICITY":8.196e-5,"INCLINATION":41.474,"RA_OF_ASC_NODE":166.8918,"ARG_OF_PERICENTER":310.4718,"MEAN_ANOMALY":49.6052,"EPHEMERIS_TYPE":0,"CLASSIFICATION_TYPE":"U","NORAD_CAT_ID":66515,"ELEMENT_SET_NO":999,"REV_AT_EPOCH":1900,"BSTAR":0.00029227235,"MEAN_MOTION_DOT":0.00034609,"MEAN_MOTION_DDOT":0},{"OBJECT_NAME":"SHENZHOU-22","OBJECT_ID":"2025-272A","EPOCH":"2026-03-15T15:59:17.332512","MEAN_MOTION":15.61005371,"ECCENTRICITY":0.00063677,"INCLINATION":41.4669,"RA_OF_ASC_NODE":171.789,"ARG_OF_PERICENTER":308.3503,"MEAN_ANOMALY":51.6764,"EPHEMERIS_TYPE":0,"CLASSIFICATION_TYPE":"U","NORAD_CAT_ID":66645,"ELEMENT_SET_NO":999,"REV_AT_EPOCH":26752,"BSTAR":0.00026859999,"MEAN_MOTION_DOT":0.00022966,"MEAN_MOTION_DDOT":0}]
