{"fetched_at": "2026-03-16T06:28:59.653625+00:00", "count": 375, "satellites": [ {"name": "ISS (ZARYA)", "tle1": "1 25544U 98067A   26074.83790868  .00008038  00000+0  15762-3 0  9990", "tle2": "2 25544  51.6331  41.9615 0006336 194.9995 165.0806 15.48299420557288", "norad_id": 25544, "group": "stations", "highlight": true}, {"name": "POISK", "tle1": "1 36086U 09060A   26074.83790868  .00008038  00000+0  15762-3 0  9998", "tle2": "2 36086  51.6331  41.9615 0006336 194.9995 165.0806 15.48299420554446", "norad_id": 36086, "group": "stations", "highlight": false}, {"name": "CSS (TIANHE)", "tle1": "1 48274U 21035A   26074.66617283  .00022966  00000+0  26860-3 0  9993", "tle2": "2 48274  41.4669 171.7890 0006367 308.3503  51.6764 15.61005371278548", "norad_id": 48274, "group": "stations", "highlight": false}, {"name": "ISS (NAUKA)", "tle1": "1 49044U 21066A   26074.83790868  .00008038  00000+0  15762-3 0  9996", "tle2": "2 49044  51.6331  41.9615 0006336 194.9995 165.0806 15.48299420554455", "norad_id": 49044, "group": "stations", "highlight": true}, {"name": "FREGAT DEB", "tle1": "1 49271U 11037PF  26074.56658630  .00015293  00000+0  21764-1 0  9993", "tle2": "2 49271  51.6526 283.1074 0962382  72.9535 297.4383 12.40410649213425", "norad_id": 49271, "group": "stations", "highlight": false}, {"name": "CSS (WENTIAN)", "tle1": "1 53239U 22085A   26074.66617283  .00022966  00000+0  26860-3 0  9996", "tle2": "2 53239  41.4669 171.7890 0006367 308.3503  51.6764 15.61005371275610", "norad_id": 53239, "group": "stations", "highlight": false}, {"name": "CSS (MENGTIAN)", "tle1": "1 54216U 22143A   26074.66617283  .00022966  00000+0  26860-3 0  9997", "tle2": "2 54216  41.4669 171.7890 0006367 308.3503  51.6764 15.61005371275582", "norad_id": 54216, "group": "stations", "highlight": false}, {"name": "PROGRESS-MS 31", "tle1": "1 64751U 25146A   26074.83790868  .00008038  00000+0  15762-3 0  9991", "tle2": "2 64751  51.6331  41.9615 0006336 194.9995 165.0806 15.48299420554468", "norad_id": 64751, "group": "stations", "highlight": false}, {"name": "TIANZHOU-9", "tle1": "1 64786U 25149A   26074.66617283  .00022966  00000+0  26860-3 0  9999", "tle2": "2 64786  41.4669 171.7890 0006367 308.3503  51.6764 15.61005371275596", "norad_id": 64786, "group": "stations", "highlight": false}, {"name": "PROGRESS-MS 32", "tle1": "1 65586U 25204A   26074.83790868  .00008038  00000+0  15762-3 0  9993", "tle2": "2 65586  51.6331  41.9615 0006336 194.9995 165.0806 15.48299420554500", "norad_id": 65586, "group": "stations", "highlight": false}, {"name": "YOTSUBA-KULOVER", "tle1": "1 65941U 98067XN  26074.83289265  .00264066  00000+0  11437-2 0  9998", "tle2": "2 65941  51.6210  25.3588 0005020 112.2581 247.8955 15.83585710 24470", "norad_id": 65941, "group": "stations", "highlight": false}, {"name": "E-KAGAKU-1", "tle1": "1 65943U 98067XQ  26074.90203802  .00253612  00000+0  11219-2 0  9994", "tle2": "2 65943  51.6233  25.0899 0005570 117.4270 242.7300 15.83160809 24488", "norad_id": 65943, "group": "stations", "highlight": false}, {"name": "HRC MONOBLOCK CAMERA", "tle1": "1 66052U 98067XR  26074.90392936  .00048968  00000+0  53289-3 0  9993", "tle2": "2 66052  51.6280  34.1527 0003788 120.0047 240.1323 15.62929545 23362", "norad_id": 66052, "group": "stations", "highlight": false}, {"name": "HTV-X1", "tle1": "1 66174U 25241A   26073.34423291  .00013614  00000+0  58534-3 0  9996", "tle2": "2 66174  51.6357  50.7100 0005742 187.4106 172.6788 15.22910308 21666", "norad_id": 66174, "group": "stations", "highlight": false}, {"name": "SZ-21 MODULE", "tle1": "1 66515U 25246C   26074.61177792  .00034609  00000+0  29227-3 0  9997", "tle2": "2 66515  41.4740 166.8918 0000819 310.4718  49.6052 15.69044572 19005", "norad_id": 66515, "group": "stations", "highlight": false}, {"name": "SHENZHOU-22", "tle1": "1 66645U 25272A   26074.66617283  .00022966  00000+0  26860-3 0  9992", "tle2": "2 66645  41.4669 171.7890 0006367 308.3503  51.6764 15.61005371267526", "norad_id": 66645, "group": "stations", "highlight": false}]}